{"type": "FeatureCollection", "features": [ {"type": "Feature", "properties": {"norad_id": 31040, "name": "FENGYUN 1C DEB", "group": "fengyun-1c-debris", "lat": 25.464133248421497, "lon": 152.95406710593727, "alt_km": 812.1092881518935, "timestamp": "2025-12-04T17:48:40.446033+00:00", "meta": {"OBJECT_NAME": "FENGYUN 1C DEB", "OBJECT_ID": "1999-025BEJ", "EPOCH": "2025-12-03T11:18:34.850016", "MEAN_MOTION": 14.17652499, "ECCENTRICITY": 0.00618276, "INCLINATION": 98.6576, "RA_OF_ASC_NODE": 327.5548, "ARG_OF_PERICENTER": 220.9797, "MEAN_ANOMALY": 291.3269, "EPHEMERIS_TYPE": 0, "CLASSIFICATION_TYPE": "U", "NORAD_CAT_ID": 31040, "ELEMENT_SET_NO": 999, "REV_AT_EPOCH": 96575, "BSTAR": 0.00045578726, "MEAN_MOTION_DOT": 9.02e-06, "MEAN_MOTION_DDOT": 0}, "tle": {"line1": "1 31040U 99025BEJ 25337.47123669  .00000902  00000+0  45579-3 0  9994", "line2": "2 31040  98.6576 327.5548 0061827 220.9797 291.3269 14.17652499965757"}}, "geometry": {"type": "Point", "coordinates": [152.95406710593727, 25.464133248421497]}}, {"type": "Feature", "properties": {"norad_id": 31041, "name": "FENGYUN 1C DEB", "group": "fengyun-1c-debris", "lat": 28.99707954251975, "lon": 1.9390741331554948, "alt_km": 788.0158249161059, "timestamp": "2025-12-04T17:48:40.446043+00:00", "meta": {"OBJECT_NAME": "FENGYUN 1C DEB", "OBJECT_ID": "1999-025BEK", "EPOCH": "2025-12-03T21:20:58.441056", "MEAN_MOTION": 14.17711562, "ECCENTRICITY": 0.008667, "INCLINATION": 99.2055, "RA_OF_ASC_NODE": 6.2126, "ARG_OF_PERICENTER": 345.7803, "MEAN_ANOMALY": 14.0932, "EPHEMERIS_TYPE": 0, "CLASSIFICATION_TYPE": "U", "NORAD_CAT_ID": 31041, "ELEMENT_SET_NO": 999, "REV_AT_EPOCH": 95364, "BSTAR": 0.0041162, "MEAN_MOTION_DOT": 8.662e-05, "MEAN_MOTION_DDOT": 0}, "tle": {"line1": "1 31041U 99025BEK 25337.88956529  .00008662  00000+0  41162-2 0  9993", "line2": "2 31041  99.2055   6.2126 0086670 345.7803  14.0932 14.17711562953646"}}, "geometry": {"type": "Point", "coordinates": [1.9390741331554948, 28.99707954251975]}}, {"type": "Feature", "properties": {"norad_id": 31043, "name": "FENGYUN 1C DEB", "group": "fengyun-1c-debris", "lat": -52.69325220197586, "lon": 8.461167154276973, "alt_km": 866.4969576069498, "timestamp": "2025-12-04T17:48:40.446053+00:00", "meta": {"OBJECT_NAME": "FENGYUN 1C DEB", "OBJECT_ID": "1999-025BEM", "EPOCH": "2025-12-02T12:14:08.314944", "MEAN_MOTION": 14.08402875, "ECCENTRICITY": 0.00418241, "INCLINATION": 98.7653, "RA_OF_ASC_NODE": 354.6104, "ARG_OF_PERICENTER": 33.0221, "MEAN_ANOMALY": 121.8076, "EPHEMERIS_TYPE": 0, "CLASSIFICATION_TYPE": "U", "NORAD_CAT_ID": 31043, "ELEMENT_SET_NO": 999, "REV_AT_EPOCH": 95843, "BSTAR": 0.00066949294, "MEAN_MOTION_DOT": 1.113e-05, "MEAN_MOTION_DDOT": 0}, "tle": {"line1": "1 31043U 99025BEM 25336.50981846  .00001113  00000+0  66949-3 0  9998", "line2": "2 31043  98.7653 354.6104 0041824  33.0221 121.8076 14.08402875958437"}}, "geometry": {"type": "Point", "coordinates": [8.461167154276973, -52.69325220197586]}}, {"type": "Feature", "properties": {"norad_id": 31046, "name": "FENGYUN 1C DEB", "group": "fengyun-1c-debris", "lat": -19.392485040347943, "lon": 100.91782810420041, "alt_km": 716.5825388548556, "timestamp": "2025-12-04T17:48:40.446063+00:00", "meta": {"OBJECT_NAME": "FENGYUN 1C DEB", "OBJECT_ID": "1999-025BEQ", "EPOCH": "2025-12-04T06:40:33.411072", "MEAN_MOTION": 14.63171796, "ECCENTRICITY": 0.00480988, "INCLINATION": 98.968, "RA_OF_ASC_NODE": 97.2272, "ARG_OF_PERICENTER": 129.8116, "MEAN_ANOMALY": 288.4024, "EPHEMERIS_TYPE": 0, "CLASSIFICATION_TYPE": "U", "NORAD_CAT_ID": 31046, "ELEMENT_SET_NO": 999, "REV_AT_EPOCH": 96519, "BSTAR": 0.012318671, "MEAN_MOTION_DOT": 0.00064992, "MEAN_MOTION_DDOT": 0}, "tle": {"line1": "1 31046U 99025BEQ 25338.27816448  .00064992  00000+0  12319-1 0  9996", "line2": "2 31046  98.9680  97.2272 0048098 129.8116 288.4024 14.63171796965195"}}, "geometry": {"type": "Point", "coordinates": [100.91782810420041, -19.392485040347943]}}, {"type": "Feature", "properties": {"norad_id": 31047, "name": "FENGYUN 1C DEB", "group": "fengyun-1c-debris", "lat": 56.58366215500526, "lon": 169.80936043108935, "alt_km": 837.3171733303734, "timestamp": "2025-12-04T17:48:40.446074+00:00", "meta": {"OBJECT_NAME": "FENGYUN 1C DEB", "OBJECT_ID": "1999-025BER", "EPOCH": "2025-11-30T06:16:53.018400", "MEAN_MOTION": 14.13811848, "ECCENTRICITY": 0.00250553, "INCLINATION": 98.6999, "RA_OF_ASC_NODE": 332.031, "ARG_OF_PERICENTER": 213.9152, "MEAN_ANOMALY": 157.3733, "EPHEMERIS_TYPE": 0, "CLASSIFICATION_TYPE": "U", "NORAD_CAT_ID": 31047, "ELEMENT_SET_NO": 999, "REV_AT_EPOCH": 96183, "BSTAR": 0.00043698289, "MEAN_MOTION_DOT": 7.87e-06, "MEAN_MOTION_DDOT": 0}, "tle": {"line1": "1 31047U 99025BER 25334.26172475  .00000787  00000+0  43698-3 0  9995", "line2": "2 31047  98.6999 332.0310 0025055 213.9152 157.3733 14.13811848961834"}}, "geometry": {"type": "Point", "coordinates": [169.80936043108935, 56.58366215500526]}}, {"type": "Feature", "properties": {"norad_id": 31051, "name": "FENGYUN 1C DEB", "group": "fengyun-1c-debris", "lat": 4.844940797916528, "lon": -169.69941709064952, "alt_km": 848.8993745950229, "timestamp": "2025-12-04T17:48:40.446084+00:00", "meta": {"OBJECT_NAME": "FENGYUN 1C DEB", "OBJECT_ID": "1999-025BEV", "EPOCH": "2025-11-29T08:36:57.509280", "MEAN_MOTION": 14.03023318, "ECCENTRICITY": 0.00528722, "INCLINATION": 98.8207, "RA_OF_ASC_NODE": 4.3303, "ARG_OF_PERICENTER": 172.6282, "MEAN_ANOMALY": 187.5674, "EPHEMERIS_TYPE": 0, "CLASSIFICATION_TYPE": "U", "NORAD_CAT_ID": 31051, "ELEMENT_SET_NO": 999, "REV_AT_EPOCH": 63631, "BSTAR": 0.00023865273, "MEAN_MOTION_DOT": 3.33e-06, "MEAN_MOTION_DDOT": 0}, "tle": {"line1": "1 31051U 99025BEV 25333.35899895  .00000333  00000+0  23865-3 0  9992", "line2": "2 31051  98.8207   4.3303 0052872 172.6282 187.5674 14.03023318636313"}}, "geometry": {"type": "Point", "coordinates": [-169.69941709064952, 4.844940797916528]}}, {"type": "Feature", "properties": {"norad_id": 31053, "name": "FENGYUN 1C DEB", "group": "fengyun-1c-debris", "lat": 68.86523055001483, "lon": -54.54389000237549, "alt_km": 745.8983038251845, "timestamp": "2025-12-04T17:48:40.446094+00:00", "meta": {"OBJECT_NAME": "FENGYUN 1C DEB", "OBJECT_ID": "1999-025BEX", "EPOCH": "2025-12-04T06:49:23.696256", "MEAN_MOTION": 13.75810538, "ECCENTRICITY": 0.03095498, "INCLINATION": 98.7945, "RA_OF_ASC_NODE": 101.4257, "ARG_OF_PERICENTER": 117.559, "MEAN_ANOMALY": 245.737, "EPHEMERIS_TYPE": 0, "CLASSIFICATION_TYPE": "U", "NORAD_CAT_ID": 31053, "ELEMENT_SET_NO": 999, "REV_AT_EPOCH": 93360, "BSTAR": 0.0044131483, "MEAN_MOTION_DOT": 6.031e-05, "MEAN_MOTION_DDOT": 0}, "tle": {"line1": "1 31053U 99025BEX 25338.28430204  .00006031  00000+0  44131-2 0  9995", "line2": "2 31053  98.7945 101.4257 0309549 117.5590 245.7370 13.75810538933604"}}, "geometry": {"type": "Point", "coordinates": [-54.54389000237549, 68.86523055001483]}}, {"type": "Feature", "properties": {"norad_id": 31054, "name": "FENGYUN 1C DEB", "group": "fengyun-1c-debris", "lat": -70.60713443208178, "lon": 17.771924472594485, "alt_km": 865.4917618570234, "timestamp": "2025-12-04T17:48:40.446104+00:00", "meta": {"OBJECT_NAME": "FENGYUN 1C DEB", "OBJECT_ID": "1999-025BEY", "EPOCH": "2025-12-03T19:12:09.872064", "MEAN_MOTION": 14.1216148, "ECCENTRICITY": 0.00104061, "INCLINATION": 98.6907, "RA_OF_ASC_NODE": 351.1051, "ARG_OF_PERICENTER": 143.9107, "MEAN_ANOMALY": 37.1149, "EPHEMERIS_TYPE": 0, "CLASSIFICATION_TYPE": "U", "NORAD_CAT_ID": 31054, "ELEMENT_SET_NO": 999, "REV_AT_EPOCH": 96637, "BSTAR": 0.00024826457, "MEAN_MOTION_DOT": 4.13e-06, "MEAN_MOTION_DDOT": 0}, "tle": {"line1": "1 31054U 99025BEY 25337.80011426  .00000413  00000+0  24826-3 0  9992", "line2": "2 31054  98.6907 351.1051 0010406 143.9107  37.1149 14.12161480966370"}}, "geometry": {"type": "Point", "coordinates": [17.771924472594485, -70.60713443208178]}}, {"type": "Feature", "properties": {"norad_id": 31055, "name": "FENGYUN 1C DEB", "group": "fengyun-1c-debris", "lat": 75.24568856050107, "lon": -134.00055655900118, "alt_km": 867.834031796353, "timestamp": "2025-12-04T17:48:40.446115+00:00", "meta": {"OBJECT_NAME": "FENGYUN 1C DEB", "OBJECT_ID": "1999-025BEZ", "EPOCH": "2025-12-03T13:07:36.252768", "MEAN_MOTION": 14.10359273, "ECCENTRICITY": 0.00240093, "INCLINATION": 98.7609, "RA_OF_ASC_NODE": 8.994, "ARG_OF_PERICENTER": 299.0409, "MEAN_ANOMALY": 217.8477, "EPHEMERIS_TYPE": 0, "CLASSIFICATION_TYPE": "U", "NORAD_CAT_ID": 31055, "ELEMENT_SET_NO": 999, "REV_AT_EPOCH": 95992, "BSTAR": 0.00050402979, "MEAN_MOTION_DOT": 8.54e-06, "MEAN_MOTION_DDOT": 0}, "tle": {"line1": "1 31055U 99025BEZ 25337.54694737  .00000854  00000+0  50403-3 0  9995", "line2": "2 31055  98.7609   8.9940 0024009 299.0409 217.8477 14.10359273959928"}}, "geometry": {"type": "Point", "coordinates": [-134.00055655900118, 75.24568856050107]}}, {"type": "Feature", "properties": {"norad_id": 31056, "name": "FENGYUN 1C DEB", "group": "fengyun-1c-debris", "lat": -47.612028710383974, "lon": -28.840560565268216, "alt_km": 840.4359226591214, "timestamp": "2025-12-04T17:48:40.446126+00:00", "meta": {"OBJECT_NAME": "FENGYUN 1C DEB", "OBJECT_ID": "1999-025BFA", "EPOCH": "2025-12-03T10:31:26.895936", "MEAN_MOTION": 14.14283138, "ECCENTRICITY": 0.0026031, "INCLINATION": 98.6671, "RA_OF_ASC_NODE": 320.2748, "ARG_OF_PERICENTER": 9.4767, "MEAN_ANOMALY": 148.9014, "EPHEMERIS_TYPE": 0, "CLASSIFICATION_TYPE": "U", "NORAD_CAT_ID": 31056, "ELEMENT_SET_NO": 999, "REV_AT_EPOCH": 96686, "BSTAR": 0.0005329074, "MEAN_MOTION_DOT": 9.78e-06, "MEAN_MOTION_DDOT": 0}, "tle": {"line1": "1 31056U 99025BFA 25337.43850574  .00000978  00000+0  53291-3 0  9992", "line2": "2 31056  98.6671 320.2748 0026031   9.4767 148.9014 14.14283138966862"}}, "geometry": {"type": "Point", "coordinates": [-28.840560565268216, -47.612028710383974]}}]}